[{"OBJECT_NAME":"ONEWEB-0457","OBJECT_ID":"2022-012AB","EPOCH":"2025-12-20T04:26:57.453216","MEAN_MOTION":13.10375029,"ECCENTRICITY":0.00015331,"INCLINATION":87.8807,"RA_OF_ASC_NODE":71.9624,"ARG_OF_PERICENTER":118.8628,"MEAN_ANOMALY":241.2653,"EPHEMERIS_TYPE":0,"CLASSIFICATION_TYPE":"U","NORAD_CAT_ID":51647,"ELEMENT_SET_NO":999,"REV_AT_EPOCH":18590,"BSTAR":-0.00080498199,"MEAN_MOTION_DOT":-2.68e-6,"MEAN_MOTION_DDOT":0},{"OBJECT_NAME":"ONEWEB-0458","OBJECT_ID":"2022-012AC","EPOCH":"2025-12-20T04:58:03.523872","MEAN_MOTION":13.10374935,"ECCENTRICITY":0.00018938,"INCLINATION":87.8812,"RA_OF_ASC_NODE":71.9321,"ARG_OF_PERICENTER":106.7873,"MEAN_ANOMALY":253.3462,"EPHEMERIS_TYPE":0,"CLASSIFICATION_TYPE":"U","NORAD_CAT_ID":51648,"ELEMENT_SET_NO":999,"REV_AT_EPOCH":18586,"BSTAR":0.0018820449,"MEAN_MOTION_DOT":6.7e-6,"MEAN_MOTION_DDOT":0},{"OBJECT_NAME":"ONEWEB-0461","OBJECT_ID":"2022-012AD","EPOCH":"2025-12-20T04:07:07.165344","MEAN_MOTION":13.17648279,"ECCENTRICITY":0.00016728,"INCLINATION":87.9111,"RA_OF_ASC_NODE":41.4392,"ARG_OF_PERICENTER":100.7582,"MEAN_ANOMALY":259.3738,"EPHEMERIS_TYPE":0,"CLASSIFICATION_TYPE":"U","NORAD_CAT_ID":51649,"ELEMENT_SET_NO":999,"REV_AT_EPOCH":19031,"BSTAR":0.00011068015,"MEAN_MOTION_DOT":5.6e-7,"MEAN_MOTION_DDOT":0},{"OBJECT_NAME":"ONEWEB-0463","OBJECT_ID":"2022-012AE","EPOCH":"2025-12-20T03:40:22.713024","MEAN_MOTION":13.17650285,"ECCENTRICITY":0.00018508,"INCLINATION":87.9094,"RA_OF_ASC_NODE":41.4852,"ARG_OF_PERICENTER":100.7571,"MEAN_ANOMALY":259.3769,"EPHEMERIS_TYPE":0,"CLASSIFICATION_TYPE":"U","NORAD_CAT_ID":51650,"ELEMENT_SET_NO":999,"REV_AT_EPOCH":19009,"BSTAR":1.6606161e-5,"MEAN_MOTION_DOT":1.9e-7,"MEAN_MOTION_DDOT":0},{"OBJECT_NAME":"ONEWEB-0464","OBJECT_ID":"2022-012AF","EPOCH":"2025-12-20T04:53:14.916768","MEAN_MOTION":13.1037066,"ECCENTRICITY":0.00017924,"INCLINATION":87.8799,"RA_OF_ASC_NODE":71.9681,"ARG_OF_PERICENTER":94.8117,"MEAN_ANOMALY":265.3215,"EPHEMERIS_TYPE":0,"CLASSIFICATION_TYPE":"U","NORAD_CAT_ID":51651,"ELEMENT_SET_NO":999,"REV_AT_EPOCH":18588,"BSTAR":0.001253864,"MEAN_MOTION_DOT":4.5e-6,"MEAN_MOTION_DDOT":0},{"OBJECT_NAME":"ONEWEB-0468","OBJECT_ID":"2022-012AG","EPOCH":"2025-12-20T05:02:50.676864","MEAN_MOTION":13.10373365,"ECCENTRICITY":0.00018971,"INCLINATION":87.8804,"RA_OF_ASC_NODE":71.9601,"ARG_OF_PERICENTER":99.4472,"MEAN_ANOMALY":260.687,"EPHEMERIS_TYPE":0,"CLASSIFICATION_TYPE":"U","NORAD_CAT_ID":51652,"ELEMENT_SET_NO":999,"REV_AT_EPOCH":18586,"BSTAR":0.0021209453,"MEAN_MOTION_DOT":7.53e-6,"MEAN_MOTION_DDOT":0},{"OBJECT_NAME":"ONEWEB-0473","OBJECT_ID":"2022-012AH","EPOCH":"2025-12-20T04:41:19.586976","MEAN_MOTION":13.10375286,"ECCENTRICITY":0.00018408,"INCLINATION":87.8805,"RA_OF_ASC_NODE":71.9664,"ARG_OF_PERICENTER":103.2116,"MEAN_ANOMALY":256.9217,"EPHEMERIS_TYPE":0,"CLASSIFICATION_TYPE":"U","NORAD_CAT_ID":51653,"ELEMENT_SET_NO":999,"REV_AT_EPOCH":18586,"BSTAR":0.0005048447,"MEAN_MOTION_DOT":1.89e-6,"MEAN_MOTION_DDOT":0},{"OBJECT_NAME":"ONEWEB-0474","OBJECT_ID":"2022-012AJ","EPOCH":"2025-12-20T04:29:21.822432","MEAN_MOTION":13.10375207,"ECCENTRICITY":0.0001905,"INCLINATION":87.8819,"RA_OF_ASC_NODE":71.9351,"ARG_OF_PERICENTER":96.1333,"MEAN_ANOMALY":264.0012,"EPHEMERIS_TYPE":0,"CLASSIFICATION_TYPE":"U","NORAD_CAT_ID":51654,"ELEMENT_SET_NO":999,"REV_AT_EPOCH":18585,"BSTAR":-0.00064265651,"MEAN_MOTION_DOT":-2.12e-6,"MEAN_MOTION_DDOT":0},{"OBJECT_NAME":"ONEWEB-0475","OBJECT_ID":"2022-012AK","EPOCH":"2025-12-20T03:57:22.992480","MEAN_MOTION":13.17650225,"ECCENTRICITY":0.00024924,"INCLINATION":87.91,"RA_OF_ASC_NODE":41.4725,"ARG_OF_PERICENTER":93.8053,"MEAN_ANOMALY":266.3364,"EPHEMERIS_TYPE":0,"CLASSIFICATION_TYPE":"U","NORAD_CAT_ID":51655,"ELEMENT_SET_NO":999,"REV_AT_EPOCH":19011,"BSTAR":0.00010473414,"MEAN_MOTION_DOT":5.4e-7,"MEAN_MOTION_DDOT":0},{"OBJECT_NAME":"ONEWEB-0490","OBJECT_ID":"2022-138A","EPOCH":"2025-12-19T23:30:29.619072","MEAN_MOTION":13.19725922,"ECCENTRICITY":0.0001923,"INCLINATION":87.9213,"RA_OF_ASC_NODE":340.6147,"ARG_OF_PERICENTER":81.5238,"MEAN_ANOMALY":278.6113,"EPHEMERIS_TYPE":0,"CLASSIFICATION_TYPE":"U","NORAD_CAT_ID":54113,"ELEMENT_SET_NO":999,"REV_AT_EPOCH":15319,"BSTAR":4.1048e-5,"MEAN_MOTION_DOT":2.9e-7,"MEAN_MOTION_DDOT":0},{"OBJECT_NAME":"ONEWEB-0492","OBJECT_ID":"2022-138B","EPOCH":"2025-12-20T00:06:52.354368","MEAN_MOTION":13.19725084,"ECCENTRICITY":0.00017166,"INCLINATION":87.9202,"RA_OF_ASC_NODE":340.6241,"ARG_OF_PERICENTER":79.0573,"MEAN_ANOMALY":281.0753,"EPHEMERIS_TYPE":0,"CLASSIFICATION_TYPE":"U","NORAD_CAT_ID":54114,"ELEMENT_SET_NO":999,"REV_AT_EPOCH":15320,"BSTAR":-8.3515769e-5,"MEAN_MOTION_DOT":-2.0e-7,"MEAN_MOTION_DDOT":0},{"OBJECT_NAME":"ONEWEB-0495","OBJECT_ID":"2022-138C","EPOCH":"2025-12-20T05:02:33.821088","MEAN_MOTION":13.19724483,"ECCENTRICITY":0.00022827,"INCLINATION":87.9199,"RA_OF_ASC_NODE":340.5863,"ARG_OF_PERICENTER":71.5026,"MEAN_ANOMALY":288.6355,"EPHEMERIS_TYPE":0,"CLASSIFICATION_TYPE":"U","NORAD_CAT_ID":54115,"ELEMENT_SET_NO":999,"REV_AT_EPOCH":15321,"BSTAR":6.8008122e-5,"MEAN_MOTION_DOT":4.0e-7,"MEAN_MOTION_DDOT":0},{"OBJECT_NAME":"ONEWEB-0497","OBJECT_ID":"2022-138D","EPOCH":"2025-12-20T05:20:45.829824","MEAN_MOTION":13.19725644,"ECCENTRICITY":0.00018406,"INCLINATION":87.9206,"RA_OF_ASC_NODE":340.5707,"ARG_OF_PERICENTER":83.2739,"MEAN_ANOMALY":276.8603,"EPHEMERIS_TYPE":0,"CLASSIFICATION_TYPE":"U","NORAD_CAT_ID":54116,"ELEMENT_SET_NO":999,"REV_AT_EPOCH":15320,"BSTAR":0.00017687179,"MEAN_MOTION_DOT":8.4e-7,"MEAN_MOTION_DDOT":0},{"OBJECT_NAME":"ONEWEB-0499","OBJECT_ID":"2022-138E","EPOCH":"2025-12-19T23:29:20.988960","MEAN_MOTION":13.19727051,"ECCENTRICITY":0.0002036,"INCLINATION":87.9202,"RA_OF_ASC_NODE":340.6323,"ARG_OF_PERICENTER":86.2013,"MEAN_ANOMALY":273.9353,"EPHEMERIS_TYPE":0,"CLASSIFICATION_TYPE":"U","NORAD_CAT_ID":54117,"ELEMENT_SET_NO":999,"REV_AT_EPOCH":15318,"BSTAR":0.00015223,"MEAN_MOTION_DOT":7.4e-7,"MEAN_MOTION_DDOT":0},{"OBJECT_NAME":"ONEWEB-0500","OBJECT_ID":"2022-138F","EPOCH":"2025-12-19T23:32:46.258944","MEAN_MOTION":13.1972491,"ECCENTRICITY":0.0001745,"INCLINATION":87.9202,"RA_OF_ASC_NODE":340.6197,"ARG_OF_PERICENTER":86.261,"MEAN_ANOMALY":273.8722,"EPHEMERIS_TYPE":0,"CLASSIFICATION_TYPE":"U","NORAD_CAT_ID":54118,"ELEMENT_SET_NO":999,"REV_AT_EPOCH":15319,"BSTAR":4.873e-5,"MEAN_MOTION_DOT":3.2e-7,"MEAN_MOTION_DDOT":0},{"OBJECT_NAME":"ONEWEB-0501","OBJECT_ID":"2022-138G","EPOCH":"2025-12-20T05:43:31.319616","MEAN_MOTION":13.19724802,"ECCENTRICITY":0.00020697,"INCLINATION":87.9211,"RA_OF_ASC_NODE":340.5671,"ARG_OF_PERICENTER":78.3727,"MEAN_ANOMALY":281.7638,"EPHEMERIS_TYPE":0,"CLASSIFICATION_TYPE":"U","NORAD_CAT_ID":54119,"ELEMENT_SET_NO":999,"REV_AT_EPOCH":15320,"BSTAR":7.3159403e-5,"MEAN_MOTION_DOT":4.2e-7,"MEAN_MOTION_DDOT":0},{"OBJECT_NAME":"ONEWEB-0502","OBJECT_ID":"2022-138H","EPOCH":"2025-12-20T05:23:02.353056","MEAN_MOTION":13.19725952,"ECCENTRICITY":0.00020958,"INCLINATION":87.9213,"RA_OF_ASC_NODE":340.5515,"ARG_OF_PERICENTER":83.1343,"MEAN_ANOMALY":277.0028,"EPHEMERIS_TYPE":0,"CLASSIFICATION_TYPE":"U","NORAD_CAT_ID":54120,"ELEMENT_SET_NO":999,"REV_AT_EPOCH":15322,"BSTAR":0.00017683384,"MEAN_MOTION_DOT":8.4e-7,"MEAN_MOTION_DDOT":0},{"OBJECT_NAME":"ONEWEB-0503","OBJECT_ID":"2022-138J","EPOCH":"2025-12-20T05:07:06.924576","MEAN_MOTION":13.19725509,"ECCENTRICITY":0.00020081,"INCLINATION":87.921,"RA_OF_ASC_NODE":340.5577,"ARG_OF_PERICENTER":92.5847,"MEAN_ANOMALY":267.5515,"EPHEMERIS_TYPE":0,"CLASSIFICATION_TYPE":"U","NORAD_CAT_ID":54121,"ELEMENT_SET_NO":999,"REV_AT_EPOCH":15321,"BSTAR":0.00014451479,"MEAN_MOTION_DOT":7.1e-7,"MEAN_MOTION_DDOT":0},{"OBJECT_NAME":"ONEWEB-0504","OBJECT_ID":"2022-138K","EPOCH":"2025-12-19T21:32:12.793920","MEAN_MOTION":13.19724824,"ECCENTRICITY":0.0002086,"INCLINATION":87.9207,"RA_OF_ASC_NODE":340.6361,"ARG_OF_PERICENTER":84.729,"MEAN_ANOMALY":275.4081,"EPHEMERIS_TYPE":0,"CLASSIFICATION_TYPE":"U","NORAD_CAT_ID":54122,"ELEMENT_SET_NO":999,"REV_AT_EPOCH":15318,"BSTAR":0.00013245,"MEAN_MOTION_DOT":6.6e-7,"MEAN_MOTION_DDOT":0},{"OBJECT_NAME":"ONEWEB-0505","OBJECT_ID":"2022-138L","EPOCH":"2025-12-20T01:06:01.026144","MEAN_MOTION":13.19725097,"ECCENTRICITY":0.00022256,"INCLINATION":87.9213,"RA_OF_ASC_NODE":340.5971,"ARG_OF_PERICENTER":77.901,"MEAN_ANOMALY":282.2372,"EPHEMERIS_TYPE":0,"CLASSIFICATION_TYPE":"U","NORAD_CAT_ID":54123,"ELEMENT_SET_NO":999,"REV_AT_EPOCH":15318,"BSTAR":-7.3850522e-5,"MEAN_MOTION_DOT":-1.7e-7,"MEAN_MOTION_DDOT":0},{"OBJECT_NAME":"ONEWEB-0506","OBJECT_ID":"2022-138M","EPOCH":"2025-12-20T00:29:37.945248","MEAN_MOTION":13.19724624,"ECCENTRICITY":0.00019516,"INCLINATION":87.9213,"RA_OF_ASC_NODE":340.5994,"ARG_OF_PERICENTER":83.2185,"MEAN_ANOMALY":276.9169,"EPHEMERIS_TYPE":0,"CLASSIFICATION_TYPE":"U","NORAD_CAT_ID":54124,"ELEMENT_SET_NO":999,"REV_AT_EPOCH":15317,"BSTAR":-0.00027164722,"MEAN_MOTION_DOT":-9.6e-7,"MEAN_MOTION_DDOT":0},{"OBJECT_NAME":"ONEWEB-0507","OBJECT_ID":"2022-138N","EPOCH":"2025-12-20T00:59:12.043968","MEAN_MOTION":13.19724982,"ECCENTRICITY":0.00019207,"INCLINATION":87.9194,"RA_OF_ASC_NODE":340.6289,"ARG_OF_PERICENTER":80.445,"MEAN_ANOMALY":279.69,"EPHEMERIS_TYPE":0,"CLASSIFICATION_TYPE":"U","NORAD_CAT_ID":54125,"ELEMENT_SET_NO":999,"REV_AT_EPOCH":15322,"BSTAR":-0.00012005418,"MEAN_MOTION_DOT":-3.5e-7,"MEAN_MOTION_DDOT":0},{"OBJECT_NAME":"ONEWEB-0508","OBJECT_ID":"2022-138P","EPOCH":"2025-12-19T23:05:28.203072","MEAN_MOTION":13.19725546,"ECCENTRICITY":0.0001955,"INCLINATION":87.9202,"RA_OF_ASC_NODE":340.639,"ARG_OF_PERICENTER":76.0333,"MEAN_ANOMALY":284.1017,"EPHEMERIS_TYPE":0,"CLASSIFICATION_TYPE":"U","NORAD_CAT_ID":54126,"ELEMENT_SET_NO":999,"REV_AT_EPOCH":15319,"BSTAR":-0.00012671,"MEAN_MOTION_DOT":-3.8e-7,"MEAN_MOTION_DDOT":0}]
